#dP2020  8  1  0  0  0.00000000      96 __u+U ITR00 FIT  IAC
## 2116 518400.00000000   900.00000000 59062 0.0000000000000
+  115   C06C07C08C09C10C11C12C13C14C16C19C20C21C22C23C24C25
+        C26C27C28C29C30C32C33C34C35C36C37C38C39C40C43C44C45
+        C46E01E02E03E04E05E07E08E09E11E12E13E14E15E18E19E21
+        E24E25E26E27E30E31E33E36G01G02G03G04G05G06G07G08G09
+        G10G11G12G13G15G16G17G18G19G20G21G22G23G24G25G26G27
+        G28G29G30G31G32J01J02J03R01R02R03R04R05R07R08R09R11
+        R12R13R14R15R16R17R18R19R20R21R23R24R26  0  0  0  0
++         0 10  9  7  8  7  7  9  6  9  8  8  7  8  9  9  8
++         7  8  9  6  8 10  8  7  7  7  7  7  7  6 10  8  9
++        11  7  7  7  8  7  7  7  7  8  7  6  6  6  6  7  7
++         7  7  6  6  7  7  7  7  6  7  7  7  8  7  7  6  7
++         6  6  6  7  7  7  7  7  7  7  6  7  7  7  6  7  6
++         7  6  7  7  7  9  8 10  7  8  8  7  7  7  7  7  8
++         7  7  7  7  7  7  6  8  5  6  7  7  6  0  0  0  0
%c M  cc GPS ccc cccc cccc cccc cccc ccccc ccccc ccccc ccccc
%c cc cc ccc ccc cccc cccc cccc cccc ccccc ccccc ccccc ccccc
%f  0.0000000  0.000000000  0.00000000000  0.000000000000000
%f  0.0000000  0.000000000  0.00000000000  0.000000000000000
%i    0    0    0    0      0      0      0      0         0
%i    0    0    0    0      0      0      0      0         0
/* INFORMATION & ANALYSIS CENTER (IAC)      ULTRA-RAPID DATA
/* S/V CLOCKS ARE ALIGNED TO GNSS TIME                      
/* G:C1WC2W R:C1PC2P E:C1XC5X C:C2IC6I J:C1CC2S             
/* PCV:IGS14_2113 OL/AL:FES2004  NONE     YN ORB:CoN CLK:CoN
*  2020 08 01  7 15  0.00000000
PC06 -20439.016647  36824.210332  -4543.757460 999999.999999
PC07  -7424.397488  30431.843767 -27753.731996    113.379269
PC08 -17934.718488  18974.576330  33078.412093   -414.856369
PC09 -11495.597795  36832.339572 -17187.193106    714.501159
PC10   4244.821383  36709.231077 -19679.472463   -222.237103
PC11 -22915.081581  11992.464331 -10354.751649   -527.345786
PC12 -16313.876370  -4603.434440 -22134.140258    452.099003
PC13  -1916.126229  22894.646186  35414.178321    572.933931
PC14 -15288.800722   4685.147110  22896.021669    753.357777
PC16 -18369.855636  37424.451928  -6896.255887   -593.644645
PC19  11035.306174 -14993.187940 -20770.148484    494.126426
PC20  16801.421665   5018.925558 -21685.062290   -836.489654
PC21 -12734.198633 -22885.447772   9690.068323   -662.527302
PC22  -1218.625891 -26793.360948  -7764.914676   -767.550050
PC23     36.460927  16647.188971 -22382.231023   -844.617701
PC24 -27130.916048  -5451.594291  -3525.050408   -752.228705
PC25 -18719.748756   8749.741181 -18746.532463   -705.978428
PC26 -19959.698134 -14757.875043  12720.745381    775.966146
PC27   9065.891302  13150.174257  22862.940856    374.117806
PC28  -8639.030710  22027.743453  14784.757057   -188.167026
PC29  20538.262440 -18797.721302   1903.275804    263.828027
PC30  21174.180195  -3855.958829  17747.861315    354.760738
PC32  12885.697740  22777.503100  -9656.947676   -879.448069
PC33 -11060.196238  14939.988890  20813.061942   -795.070824
PC34 -21406.992563   4268.147835 -17407.174223 999999.999999
PC35   8017.852068 -22368.481879 -14615.479145   -723.119310
PC36  19113.910789  -8175.620890  18644.933246   -885.703501
PC37  19112.511867  15423.694569 -13231.639174   -885.053958
PC38 -16282.764504  21714.354255  32218.323560 999999.999999
PC39 -16064.646560  38508.723069  -6447.284042 999999.999999
PC40   -286.634136  34253.912343 -24445.523672 999999.999999
PC43 -20801.617844  18483.338910  -2239.409890 999999.999999
PC44  -9457.778778 -13060.412357 -22781.874014 999999.999999
PC45   -124.413324 -16546.862302  22483.305907    193.890271
PC46  27164.524362   4978.713622   4121.934125    708.712774
PE01 -24127.951312  -7886.753855 -15223.043531   -910.272821
PE02  24109.944514   7789.294750  15313.324554    151.307425
PE03  17466.222035   -911.133976 -23879.165455   -326.843265
PE04 -14830.618739  21096.871644  14535.601360   -577.436130
PE05   9888.096682  20100.133479 -19340.856310   -358.411300
PE07   3389.377847 -29197.825474   3562.885394   -416.653839
PE08  14512.215856 -21416.574431 -14394.008707   6141.450686
PE09  -3165.523384  29190.465690  -3663.561407   5978.147676
PE11  -5655.797820  17884.134006  22888.325339   4488.607684
PE12 -24040.339258  14649.093655   9161.820591   5677.982755
PE13   5864.796753 -17872.340793 -22856.727374    402.713826
PE14  -5789.121512 -24031.881748 -20562.390482  -1104.436508
PE15  23854.866410 -14807.724197  -9376.008297    857.918693
PE18   -632.319951  20744.609178  12146.330178  -1208.546481
PE19 -16980.991964  -1559.061449  24202.251174     42.038403
PE21 -20903.618588 -20806.902934   2556.559266   -613.303130
PE24   4907.966408  21848.662107 -19369.810244   5320.814246
PE25  20833.641542  20850.504151  -2675.186458   -514.465609
PE26 -16009.850347 -10398.285595 -22622.056238   2894.146654
PE27  -5362.935970 -21893.821944  19195.096510    165.258440
PE30  13699.382931  -9699.522220  24378.681718   3701.497144
PE31 -13239.165249  10108.039845 -24456.937707   -473.449292
PE33 -27830.843563   3041.035631  -9615.690842   -464.251592
PE36  15565.084137  10439.652679  22908.446660    526.617480
PG01  -8093.389954 -13886.841983 -21441.099303     30.639720
PG02 -14932.988535  14312.921554  17279.692021   -495.740501
PG03 -11791.929898 -23400.570250  -4746.389626   -256.971591
PG04  -3606.878572 -19546.316019  17610.886981   -119.329119
PG05  -4388.716733  17406.608388  19366.358086    -17.864792
PG06 -24825.180584   6449.866501   7024.355803   -310.360206
PG07 -23467.508768  -6726.065618  11361.392849   -340.263514
PG08   4770.431599 -24448.273041  -8827.037493    -42.960074
PG09 -12689.200967  -8943.272893  21498.748840   -263.181730
PG10  18293.027173   3763.807692 -18891.183698   -415.553644
PG11   1753.831069 -18600.857463 -19474.426541   -205.100580
PG12   9667.903739  24255.055823  -5519.722758     86.335460
PG13 -13016.520582  22959.553376  -2545.993015     31.813669
PG15  -1344.249521  24678.970272  -9528.861442   -213.633038
PG16   3479.329832 -18819.721998  18001.986961   -189.996424
PG17 -17918.217208   8479.428792 -17234.076933    304.514348
PG18  23442.463368   6404.777676  10748.083431    259.925954
PG19 -18723.365342  14431.555990 -12355.926309   -124.372310
PG20  21218.535132  12871.936815  -9857.643425    527.164511
PG21  23960.448056  -8177.532005  -6800.140558     30.500488
PG22  -7264.411861 -22713.089638 -11646.034179   -767.781756
PG23  19723.565454  12479.485267 -12708.421811     24.861937
PG24   5904.934307  15055.890178 -21305.959129    -16.505144
PG25  17007.550717  20103.435421   4182.167939     29.966951
PG26  13394.528530  -7931.405243  21495.191033    253.545679
PG27  12399.886460 -23224.998448   1454.773089   -360.199723
PG28 -16931.581480  -3487.626014 -19540.105144    694.002784
PG29   8649.164611  13239.798548  21287.885432   -162.977662
PG30 -26660.395297    208.909049   1046.036375   -273.508589
PG31  24393.482328  -7039.910821   8509.750688    -59.316409
PG32  17874.225400  -9693.451861 -16922.636440    326.028287
PJ01 -26309.318732  25605.123380  25730.788751   -193.997109
PJ02 -26019.448270  14894.227993 -25184.622400     -1.857869
PJ03 -26643.436226  32503.277709   1652.140929     -0.262118
PR01  10803.965940  10336.534404 -20658.956470     65.381965
PR02   8866.364626 -12706.670957 -20204.162362    438.946204
PR03   1681.470579 -24551.230507  -6578.660115     19.584530
PR04  -6322.800955 -22315.134990  10642.116853     58.311354
PR05 -10711.650654  -7528.537128  21898.937678     55.072435
PR07  -1468.044045  24753.835142   6106.867633    -38.919728
PR08   6303.031294  22359.819993 -10497.824352    -53.795332
PR09 -13037.765077   5223.118400 -21292.126054    146.531353
PR11  17291.906459  14763.335356 -11487.662162    -32.524787
PR12  23365.732245   8909.259157   5106.207658    151.835755
PR13  16325.475901  -2366.874378  19442.975461    -41.892589
PR14   -483.640596 -12259.895840  22383.842986     53.975230
PR15 -16641.766560 -14907.480414  12339.258179    106.962341
PR16 -23467.729560  -8013.236074  -5726.388318     -4.926286
PR17  12435.610509 -16369.635076 -15129.643250    345.990131
PR18  -3350.098359 -10236.590340 -23111.628926     44.289038
PR19 -16973.837270    482.433236 -19037.151711   -104.875383
PR20 -22142.007131  12550.979180  -1971.413861   -418.183485
PR21 -11640.376246  16148.916351  15922.732131   -142.024649
PR23  20546.989528  -5762.175754  13964.118395    322.392094
PR24  21918.858765 -13009.369082   1235.879775      8.237485
PR26 -22132.254247  10477.882672  -7079.417678   -363.438132
EOF
